NORAD_CAT_ID,OBJECT_NAME,OBJECT_TYPE,EPOCH,MEAN_MOTION,ECCENTRICITY,INCLINATION,RA_OF_ASC_NODE,ARG_OF_PERICENTER,MEAN_ANOMALY,BSTAR,MEAN_MOTION_DOT,MEAN_MOTION_DDOT,TLE_LINE0,TLE_LINE1,TLE_LINE2,SEMIMAJOR_AXIS,PERIOD,APOGEE,PERIGEE,DECAYED
55669.0,STARLINK-5459,PAYLOAD,2023-03-04 10:00:01,15.7416584,0.0003461,70.0001,108.7688,276.3622,285.7444,-0.0075459,-0.00969033,0.0,0 STARLINK-5459,1 55669U 23021AT  23063.41668981 -.00969033  00000-0 -75459-2 0  9990,2 55669  70.0001 108.7688 0003461 276.3622 285.7444 15.74165840  2840,6725.143,91.477,349.336,344.68,0.0
55669.0,STARLINK-5459,PAYLOAD,2023-03-04 14:00:01,15.7382727,0.0003697,69.9999,108.2977,277.0929,149.0437,-0.0078238,-0.01004159,0.0,0 STARLINK-5459,1 55669U 23021AT  23063.58334491 -.01004159  00000-0 -78238-2 0  9992,2 55669  69.9999 108.2977 0003697 277.0929 149.0437 15.73827270  1303,6726.107,91.497,350.459,345.486,0.0
55669.0,STARLINK-5459,PAYLOAD,2023-03-04 22:00:00,15.73018524,0.0002992,69.9944,107.3472,268.1798,245.5649,-0.0067638,-0.00839502,0.0,0 STARLINK-5459,1 55669U 23021AT  23063.91667824 -.00839502  00000-0 -67638-2 0  9997,2 55669  69.9944 107.3472 0002992 268.1798 245.5649 15.73018524  1306,6728.413,91.544,352.291,348.264,0.0
55669.0,STARLINK-5459,PAYLOAD,2023-03-05 08:00:01,15.72225897,0.0003659,69.9942,106.1713,270.7448,81.306,-0.008358,-0.01001696,0.0,0 STARLINK-5459,1 55669U 23021AT  23064.33335648 -.01001696  00000-0 -83580-2 0  9990,2 55669  69.9942 106.1713 0003659 270.7448  81.3060 15.72225897  2981,6730.674,91.59,355.002,350.076,0.0
55669.0,STARLINK-5459,PAYLOAD,2023-03-05 14:00:01,15.71691488,0.0003637,69.9936,105.4662,274.0039,52.3032,-0.0083185,-0.00977025,0.0,0 STARLINK-5459,1 55669U 23021AT  23064.58334491 -.00977025  00000-0 -83185-2 0  9990,2 55669  69.9936 105.4662 0003637 274.0039  52.3032 15.71691488  1302,6732.199,91.621,356.513,351.616,0.0
55669.0,STARLINK-5459,PAYLOAD,2023-03-05 22:00:00,15.70940604,0.0003598,69.9938,104.5268,269.2481,142.1015,-0.007928,-0.00895021,0.0,0 STARLINK-5459,1 55669U 23021AT  23064.91667824 -.00895021  00000-0 -79280-2 0  9992,2 55669  69.9938 104.5268 0003598 269.2481 142.1015 15.70940604  1304,6734.345,91.665,358.633,353.787,0.0
55669.0,STARLINK-5459,PAYLOAD,2023-03-06 08:00:01,15.69965058,0.0003433,69.995,103.3542,272.6392,333.8051,-0.00074472,-0.0008897,0.0,0 STARLINK-5459,1 55669U 23021AT  23065.33334491 -.00088970  00000-0 -74472-3 0  9996,2 55669  69.9950 103.3542 0003433 272.6392 333.8051 15.69965058  3148,6737.134,91.722,361.312,356.686,0.0
55669.0,STARLINK-5459,PAYLOAD,2023-03-06 22:00:00,15.69923355,0.0003305,69.9973,101.7135,271.3785,30.9326,-0.00010242,-0.00012509,0.0,0 STARLINK-5459,1 55669U 23021AT  23065.91667824 -.00012509  00000-0 -10242-3 0  9999,2 55669  69.9973 101.7135 0003305 271.3785  30.9326 15.69923355  1303,6737.253,91.724,361.345,356.892,0.0
55669.0,STARLINK-5459,PAYLOAD,2023-03-07 08:00:01,15.69875134,0.0003384,69.999,100.5421,276.4616,219.9762,0.00062661,0.00075661,0.0,0 STARLINK-5459,1 55669U 23021AT  23066.33334491  .00075661  00000-0  62661-3 0  9995,2 55669  69.9990 100.5421 0003384 276.4616 219.9762 15.69875134  3309,6737.391,91.727,361.536,356.976,0.0
55669.0,STARLINK-5459,PAYLOAD,2023-03-07 22:00:00,15.69868501,0.0003451,70.0002,98.9015,266.6437,285.6848,0.00075282,0.00091087,0.0,0 STARLINK-5459,1 55669U 23021AT  23066.91667824  .00091087  00000-0  75282-3 0  9991,2 55669  70.0002  98.9015 0003451 266.6437 285.6848 15.69868501  3396,6737.41,91.727,361.6,356.95,0.0
55669.0,STARLINK-5459,PAYLOAD,2023-03-08 06:00:00,15.69910078,0.0003412,70.0006,97.9641,269.4934,6.1311,-0.00013885,-0.00016865,0.0,0 STARLINK-5459,1 55669U 23021AT  23067.25001157 -.00016865  00000-0 -13885-3 0  9994,2 55669  70.0006  97.9641 0003412 269.4934   6.1311 15.69910078  3448,6737.291,91.725,361.455,356.858,0.0
55669.0,STARLINK-5459,PAYLOAD,2023-03-08 16:00:00,15.70003305,0.0003278,70.0005,96.7927,271.6713,198.0921,-0.001122,-0.00133439,0.0,0 STARLINK-5459,1 55669U 23021AT  23067.66667824 -.00133439  00000-0 -11220-2 0  9995,2 55669  70.0005  96.7927 0003278 271.6713 198.0921 15.70003305  3515,6737.025,91.72,361.098,356.681,0.0
55669.0,STARLINK-5459,PAYLOAD,2023-03-08 22:00:00,15.69868888,0.0003386,70.0007,96.0899,262.6133,179.7123,0.00079024,0.00095678,0.0,0 STARLINK-5459,1 55669U 23021AT  23067.91667824  .00095678  00000-0  79024-3 0  9990,2 55669  70.0007  96.0899 0003386 262.6133 179.7123 15.69868888  1302,6737.409,91.727,361.555,356.993,0.0
55669.0,STARLINK-5459,PAYLOAD,2023-03-09 08:00:01,15.69882272,0.0003382,70.0008,94.9185,267.9599,8.5228,0.00036533,0.00043869,0.0,0 STARLINK-5459,1 55669U 23021AT  23068.33334491  .00043869  00000-0  36533-3 0  9991,2 55669  70.0008  94.9185 0003382 267.9599   8.5228 15.69882272  3612,6737.371,91.727,361.514,356.957,0.0
55669.0,STARLINK-5459,PAYLOAD,2023-03-09 22:00:00,15.69858809,0.0003342,70.0005,93.2782,261.0088,71.3265,0.00096699,0.00117381,0.0,0 STARLINK-5459,1 55669U 23021AT  23068.91667824  .00117381  00000-0  96699-3 0  9994,2 55669  70.0005  93.2782 0003342 261.0088  71.3265 15.69858809  1300,6737.438,91.728,361.555,357.051,0.0
55669.0,STARLINK-5459,PAYLOAD,2023-03-10 04:14:06,15.69925612,0.0003397,70.0004,92.5484,266.1822,93.8985,1.3218e-05,1.377e-05,0.0,0 STARLINK-5459,1 55669U 23021AT  23069.17646029  .00001377  00000-0  13218-4 0  9991,2 55669  70.0004  92.5484 0003397 266.1822  93.8985 15.69925612  3747,6737.247,91.724,361.4,356.823,0.0
55669.0,STARLINK-5459,PAYLOAD,2023-03-10 17:59:52,15.69927539,0.0003371,70.0,90.9362,266.0585,94.0226,1.6907e-05,1.821e-05,0.0,0 STARLINK-5459,1 55669U 23021AT  23069.74991067  .00001821  00000-0  16907-4 0  9991,2 55669  70.0000  90.9362 0003371 266.0585  94.0226 15.69927539  4143,6737.241,91.724,361.377,356.835,0.0
55669.0,STARLINK-5459,PAYLOAD,2023-03-11 10:49:08,15.69925746,0.0003263,70.0002,88.9659,262.5195,97.563,1.6478e-05,1.769e-05,0.0,0 STARLINK-5459,1 55669U 23021AT  23070.45079560  .00001769  00000-0  16478-4 0  9990,2 55669  70.0002  88.9659 0003263 262.5195  97.5630 15.69925746  3941,6737.246,91.724,361.31,356.913,0.0
55669.0,STARLINK-5459,PAYLOAD,2023-03-11 12:20:53,15.69928755,0.0003276,70.0002,88.7867,263.9956,96.0866,2.1465e-05,2.369e-05,0.0,0 STARLINK-5459,1 55669U 23021AT  23070.51451090  .00002369  00000-0  21465-4 0  9998,2 55669  70.0002  88.7867 0003276 263.9956  96.0866 15.69928755  4268,6737.238,91.724,361.31,356.896,0.0
55669.0,STARLINK-5459,PAYLOAD,2023-03-12 11:17:10,15.69930396,0.0003304,70.0008,86.0998,261.6799,98.4023,2.7528e-05,3.099e-05,0.0,0 STARLINK-5459,1 55669U 23021AT  23071.47026164  .00003099  00000-0  27528-4 0  9991,2 55669  70.0008  86.0998 0003304 261.6799  98.4023 15.69930396  4414,6737.233,91.724,361.324,356.872,0.0
55669.0,STARLINK-5459,PAYLOAD,2023-03-12 12:48:55,15.69929821,0.000316,70.0015,85.9206,261.5134,98.5704,4.7017e-05,5.446e-05,0.0,0 STARLINK-5459,1 55669U 23021AT  23071.53397944  .00005446  00000-0  47017-4 0  9998,2 55669  70.0015  85.9206 0003160 261.5134  98.5704 15.69929821  4119,6737.235,91.724,361.229,356.971,0.0
55669.0,STARLINK-5459,PAYLOAD,2023-03-13 04:06:27,15.69905561,0.000455,70.0007,84.1301,279.1165,80.9515,-2.0813e-05,-2.714e-05,0.0,0 STARLINK-5459,1 55669U 23021AT  23072.17115663 -.00002714  00000-0 -20813-4 0  9997,2 55669  70.0007  84.1301 0004550 279.1165  80.9515 15.69905561  4211,6737.304,91.725,362.235,356.104,0.0
55669.0,STARLINK-5459,PAYLOAD,2023-03-13 10:13:27,15.69931887,0.0003834,70.0017,83.415,262.09,97.986,-4.954e-05,-6.168e-05,0.0,0 STARLINK-5459,1 55669U 23021AT  23072.42600975 -.00006168  00000-0 -49540-4 0  9995,2 55669  70.0017  83.4150 0003834 262.0900  97.9860 15.69931887  4253,6737.229,91.724,361.677,356.511,0.0
55669.0,STARLINK-5459,PAYLOAD,2023-03-13 13:16:57,15.69923969,0.0003951,70.001,83.0561,266.1967,93.8777,1.9177e-05,2.094e-05,0.0,0 STARLINK-5459,1 55669U 23021AT  23072.55344882  .00002094  00000-0  19177-4 0  9996,2 55669  70.0010  83.0561 0003951 266.1967  93.8777 15.69923969  4586,6737.252,91.724,361.778,356.455,0.0
55669.0,STARLINK-5459,PAYLOAD,2023-03-14 10:41:29,15.69928409,0.0003572,70.0006,80.5469,266.9794,93.0993,9.5905e-06,9.41e-06,0.0,0 STARLINK-5459,1 55669U 23021AT  23073.44548091  .00000941  00000-0  95905-5 0  9996,2 55669  70.0006  80.5469 0003572 266.9794  93.0993 15.69928409  4413,6737.239,91.724,361.51,356.697,0.0
55669.0,STARLINK-5459,PAYLOAD,2023-03-14 19:51:59,15.69944465,0.0003036,70.0,79.4742,274.8707,85.2142,3.1155e-05,3.538e-05,0.0,0 STARLINK-5459,1 55669U 23021AT  23073.82777367  .00003538  00000-0  31155-4 0  9999,2 55669  70.0000  79.4742 0003036 274.8707  85.2142 15.69944465  4470,6737.193,91.723,361.103,357.012,0.0
55669.0,STARLINK-5459,PAYLOAD,2023-03-15 03:30:46,15.69916601,0.0003844,70.0006,78.5776,266.8912,93.1844,1.9444e-07,-1.9e-06,0.0,0 STARLINK-5459,1 55669U 23021AT  23074.14636992 -.00000190  00000-0  19444-6 0  9994,2 55669  70.0006  78.5776 0003844 266.8912  93.1844 15.69916601  4523,6737.273,91.725,361.727,356.548,0.0
55669.0,STARLINK-5459,PAYLOAD,2023-03-15 12:41:16,15.69926119,0.000324,70.001,77.5006,262.8547,97.228,1.9526e-05,2.136e-05,0.0,0 STARLINK-5459,1 55669U 23021AT  23074.52866614  .00002136  00000-0  19526-4 0  9992,2 55669  70.0010  77.5006 0003240 262.8547  97.2280 15.69926119  4897,6737.245,91.724,361.293,356.928,0.0
55669.0,STARLINK-5459,PAYLOAD,2023-03-16 02:27:03,15.6992048,0.0003194,70.0002,75.8884,261.2403,98.8431,-1.4277e-05,-1.929e-05,0.0,0 STARLINK-5459,1 55669U 23021AT  23075.10212036 -.00001929  00000-0 -14277-4 0  9999,2 55669  70.0002  75.8884 0003194 261.2403  98.8431 15.69920480  4671,6737.262,91.724,361.278,356.975,0.0
55669.0,STARLINK-5459,PAYLOAD,2023-03-16 11:37:33,15.69929597,0.0003447,70.0014,74.8143,263.417,96.6633,1.3221e-05,1.378e-05,0.0,0 STARLINK-5459,1 55669U 23021AT  23075.48441646  .00001378  00000-0  13221-4 0  9995,2 55669  70.0014  74.8143 0003447 263.4170  96.6633 15.69929597  4732,6737.235,91.724,361.423,356.778,0.0
